{"type": "FeatureCollection", "name": "FICTIONAL EXAMPLE GEOMETRY - not real survey lines", "features": [{"type": "Feature", "properties": {"ABSTRACT_N": "123", "LEVEL2_BLO": "33", "LEVEL3_SUR": "12"}, "geometry": {"type": "Polygon", "coordinates": [[[-103.6, 31.4], [-103.5830423, 31.4], [-103.5830423, 31.4144732], [-103.6, 31.4144732], [-103.6, 31.4]]]}}, {"type": "Feature", "properties": {"ABSTRACT_N": "124", "LEVEL2_BLO": "33", "LEVEL3_SUR": "13"}, "geometry": {"type": "Polygon", "coordinates": [[[-103.6, 31.38], [-103.5830459, 31.38], [-103.5830459, 31.3944732], [-103.6, 31.3944732], [-103.6, 31.38]]]}}]}